STARLINK-31727          
1 59638U 24082H   26067.61913985 -.00000502  00000+0 -87427-5 0  9991
2 59638  43.0027 146.2440 0001098 232.1445 127.9307 15.27561531104694
FLOCK 4G-8              
1 62613U 25009E   26068.72381419  .00013559  00000+0  50438-3 0  9996
2 62613  97.4045 151.2834 0003050 315.2538  44.8455 15.27623414 63721
